SNAP-3 JIMI             
1 40975U 15058M   26117.12172094  .00008851  00000+0  61415-3 0  9998
2 40975  64.7672  21.2712 0104749  76.4440 284.8320 15.01728352106552
PROPCUBE 1 (FLORA)      
1 40976U 15058N   26117.28843966  .00003624  00000+0  34485-3 0  9999
2 40976  64.7734  92.9464 0129296  80.8369 280.7342 14.88920115108684
SINOD-D 3               
1 40977U 15058P   26117.29445615  .00005663  00000+0  48089-3 0  9990
2 40977  64.7723  74.6894 0117771  78.4073 283.0233 14.93601965107158
HORYU-4                 
1 41340U 16012D   26117.28705084  .00174563  00000+0  11757-2 0  9991
2 41340  30.9888  85.4894 0006320 252.9200 107.0763 15.73490645562741
RAVAN                   
1 41849U 16067B   26117.18196393  .00051456  00000+0  91007-3 0  9993
2 41849  97.9961   1.0456 0006248 162.0595 198.0876 15.50143052519788
CELTEE 1                
1 41850U 16067C   26117.03700575  .00006068  00000+0  29223-3 0  9992
2 41850  98.0749 340.1173 0002346  77.9465 282.2031 15.19166397518111
OPTICUBE 04             
1 41851U 16067D   26117.10493271  .00002312  00000+0  14871-3 0  9994
2 41851  98.0763 326.7158 0014271 292.6580  67.3138 15.09441485517465
AEROCUBE 8D             
1 41852U 16067E   26117.20566971  .00009263  00000+0  38932-3 0  9990
2 41852  98.0761 343.5091 0002467 336.4853  23.6269 15.23675096518308
AEROCUBE 8C             
1 41853U 16067F   26117.10737231  .00008593  00000+0  35894-3 0  9998
2 41853  98.0631 340.6979 0004178 225.7772 134.3121 15.23905388518283
CORVUS BC2              
1 42846U 17042X   26117.17081209  .00003819  00000+0  26599-3 0  9997
2 42846  97.4020 280.5314 0011392 288.9033  71.0959 15.05968651479388
CORVUS BC1              
1 42847U 17042Y   26117.17119329  .00003210  00000+0  22330-3 0  9997
2 42847  97.4053 281.3122 0010220 261.5126  98.4943 15.06137878479410
MAKERSAT 0              
1 43016U 17073D   26117.20053005  .00027882  00000+0  78971-3 0  9995
2 43016  97.4707 359.3894 0114041  94.2270 267.2012 15.29875893458662
SIRION PATHFINDER-2     
1 43759U 18099B   26117.10280926  .00005532  00000+0  30729-3 0  9998
2 43759  97.4301 167.3807 0010458 114.0468 246.1859 15.14066275404895
CORVUS BC4              
1 43767U 18099K   26117.10706977  .00004362  00000+0  25701-3 0  9990
2 43767  97.4120 161.5863 0008794 166.2171 193.9301 15.12070454404681
M2 PATHFINDER           
1 45727U 20037E   26117.10305652  .00001782  00000+0  13191-3 0  9991
2 45727  97.8165 307.7644 0010699 333.3097  26.7577 15.04446015317811
NETSAT-4                
1 46504U 20068U   26117.28154189  .00021953  00000+0  51328-3 0  9991
2 46504  97.8626 121.5005 0007296 130.5076 229.6806 15.42156504307926
