[{"OBJECT_NAME":"SNAP-3 JIMI","OBJECT_ID":"2015-058M","EPOCH":"2026-04-27T02:55:16.689216","MEAN_MOTION":15.01728352,"ECCENTRICITY":0.01047498,"INCLINATION":64.7672,"RA_OF_ASC_NODE":21.2712,"ARG_OF_PERICENTER":76.444,"MEAN_ANOMALY":284.832,"EPHEMERIS_TYPE":0,"CLASSIFICATION_TYPE":"U","NORAD_CAT_ID":40975,"ELEMENT_SET_NO":999,"REV_AT_EPOCH":10655,"BSTAR":0.00061415495,"MEAN_MOTION_DOT":8.851e-5,"MEAN_MOTION_DDOT":0},{"OBJECT_NAME":"PROPCUBE 1 (FLORA)","OBJECT_ID":"2015-058N","EPOCH":"2026-04-27T06:55:21.186624","MEAN_MOTION":14.88920115,"ECCENTRICITY":0.01292961,"INCLINATION":64.7734,"RA_OF_ASC_NODE":92.9464,"ARG_OF_PERICENTER":80.8369,"MEAN_ANOMALY":280.7342,"EPHEMERIS_TYPE":0,"CLASSIFICATION_TYPE":"U","NORAD_CAT_ID":40976,"ELEMENT_SET_NO":999,"REV_AT_EPOCH":10868,"BSTAR":0.00034484819,"MEAN_MOTION_DOT":3.624e-5,"MEAN_MOTION_DDOT":0},{"OBJECT_NAME":"SINOD-D 3","OBJECT_ID":"2015-058P","EPOCH":"2026-04-27T07:04:01.011360","MEAN_MOTION":14.93601965,"ECCENTRICITY":0.0117771,"INCLINATION":64.7723,"RA_OF_ASC_NODE":74.6894,"ARG_OF_PERICENTER":78.4073,"MEAN_ANOMALY":283.0233,"EPHEMERIS_TYPE":0,"CLASSIFICATION_TYPE":"U","NORAD_CAT_ID":40977,"ELEMENT_SET_NO":999,"REV_AT_EPOCH":10715,"BSTAR":0.00048088976,"MEAN_MOTION_DOT":5.663e-5,"MEAN_MOTION_DDOT":0},{"OBJECT_NAME":"HORYU-4","OBJECT_ID":"2016-012D","EPOCH":"2026-04-27T06:53:21.192576","MEAN_MOTION":15.73490645,"ECCENTRICITY":0.00063204,"INCLINATION":30.9888,"RA_OF_ASC_NODE":85.4894,"ARG_OF_PERICENTER":252.92,"MEAN_ANOMALY":107.0763,"EPHEMERIS_TYPE":0,"CLASSIFICATION_TYPE":"U","NORAD_CAT_ID":41340,"ELEMENT_SET_NO":999,"REV_AT_EPOCH":56274,"BSTAR":0.0011757249,"MEAN_MOTION_DOT":0.00174563,"MEAN_MOTION_DDOT":0},{"OBJECT_NAME":"RAVAN","OBJECT_ID":"2016-067B","EPOCH":"2026-04-27T04:22:01.683552","MEAN_MOTION":15.50143052,"ECCENTRICITY":0.00062483,"INCLINATION":97.9961,"RA_OF_ASC_NODE":1.0456,"ARG_OF_PERICENTER":162.0595,"MEAN_ANOMALY":198.0876,"EPHEMERIS_TYPE":0,"CLASSIFICATION_TYPE":"U","NORAD_CAT_ID":41849,"ELEMENT_SET_NO":999,"REV_AT_EPOCH":51978,"BSTAR":0.00091006977,"MEAN_MOTION_DOT":0.00051456,"MEAN_MOTION_DDOT":0},{"OBJECT_NAME":"CELTEE 1","OBJECT_ID":"2016-067C","EPOCH":"2026-04-27T00:53:17.296800","MEAN_MOTION":15.19166397,"ECCENTRICITY":0.00023465,"INCLINATION":98.0749,"RA_OF_ASC_NODE":340.1173,"ARG_OF_PERICENTER":77.9465,"MEAN_ANOMALY":282.2031,"EPHEMERIS_TYPE":0,"CLASSIFICATION_TYPE":"U","NORAD_CAT_ID":41850,"ELEMENT_SET_NO":999,"REV_AT_EPOCH":51811,"BSTAR":0.00029223438,"MEAN_MOTION_DOT":6.068e-5,"MEAN_MOTION_DDOT":0},{"OBJECT_NAME":"OPTICUBE 04","OBJECT_ID":"2016-067D","EPOCH":"2026-04-27T02:31:06.186144","MEAN_MOTION":15.09441485,"ECCENTRICITY":0.00142719,"INCLINATION":98.0763,"RA_OF_ASC_NODE":326.7158,"ARG_OF_PERICENTER":292.658,"MEAN_ANOMALY":67.3138,"EPHEMERIS_TYPE":0,"CLASSIFICATION_TYPE":"U","NORAD_CAT_ID":41851,"ELEMENT_SET_NO":999,"REV_AT_EPOCH":51746,"BSTAR":0.00014871033,"MEAN_MOTION_DOT":2.312e-5,"MEAN_MOTION_DDOT":0},{"OBJECT_NAME":"AEROCUBE 8D","OBJECT_ID":"2016-067E","EPOCH":"2026-04-27T04:56:09.862944","MEAN_MOTION":15.23675096,"ECCENTRICITY":0.00024671,"INCLINATION":98.0761,"RA_OF_ASC_NODE":343.5091,"ARG_OF_PERICENTER":336.4853,"MEAN_ANOMALY":23.6269,"EPHEMERIS_TYPE":0,"CLASSIFICATION_TYPE":"U","NORAD_CAT_ID":41852,"ELEMENT_SET_NO":999,"REV_AT_EPOCH":51830,"BSTAR":0.00038932301,"MEAN_MOTION_DOT":9.263e-5,"MEAN_MOTION_DDOT":0},{"OBJECT_NAME":"AEROCUBE 8C","OBJECT_ID":"2016-067F","EPOCH":"2026-04-27T02:34:36.967584","MEAN_MOTION":15.23905388,"ECCENTRICITY":0.00041786,"INCLINATION":98.0631,"RA_OF_ASC_NODE":340.6979,"ARG_OF_PERICENTER":225.7772,"MEAN_ANOMALY":134.3121,"EPHEMERIS_TYPE":0,"CLASSIFICATION_TYPE":"U","NORAD_CAT_ID":41853,"ELEMENT_SET_NO":999,"REV_AT_EPOCH":51828,"BSTAR":0.00035894237,"MEAN_MOTION_DOT":8.593e-5,"MEAN_MOTION_DDOT":0},{"OBJECT_NAME":"CORVUS BC2","OBJECT_ID":"2017-042X","EPOCH":"2026-04-27T04:05:58.164576","MEAN_MOTION":15.05968651,"ECCENTRICITY":0.00113926,"INCLINATION":97.402,"RA_OF_ASC_NODE":280.5314,"ARG_OF_PERICENTER":288.9033,"MEAN_ANOMALY":71.0959,"EPHEMERIS_TYPE":0,"CLASSIFICATION_TYPE":"U","NORAD_CAT_ID":42846,"ELEMENT_SET_NO":999,"REV_AT_EPOCH":47938,"BSTAR":0.00026599153,"MEAN_MOTION_DOT":3.819e-5,"MEAN_MOTION_DDOT":0},{"OBJECT_NAME":"CORVUS BC1","OBJECT_ID":"2017-042Y","EPOCH":"2026-04-27T04:06:31.100256","MEAN_MOTION":15.06137878,"ECCENTRICITY":0.001022,"INCLINATION":97.4053,"RA_OF_ASC_NODE":281.3122,"ARG_OF_PERICENTER":261.5126,"MEAN_ANOMALY":98.4943,"EPHEMERIS_TYPE":0,"CLASSIFICATION_TYPE":"U","NORAD_CAT_ID":42847,"ELEMENT_SET_NO":999,"REV_AT_EPOCH":47941,"BSTAR":0.00022330089,"MEAN_MOTION_DOT":3.21e-5,"MEAN_MOTION_DDOT":0},{"OBJECT_NAME":"MAKERSAT 0","OBJECT_ID":"2017-073D","EPOCH":"2026-04-27T04:48:45.796320","MEAN_MOTION":15.29875893,"ECCENTRICITY":0.01140415,"INCLINATION":97.4707,"RA_OF_ASC_NODE":359.3894,"ARG_OF_PERICENTER":94.227,"MEAN_ANOMALY":267.2012,"EPHEMERIS_TYPE":0,"CLASSIFICATION_TYPE":"U","NORAD_CAT_ID":43016,"ELEMENT_SET_NO":999,"REV_AT_EPOCH":45866,"BSTAR":0.00078971226,"MEAN_MOTION_DOT":0.00027882,"MEAN_MOTION_DDOT":0},{"OBJECT_NAME":"SIRION PATHFINDER-2","OBJECT_ID":"2018-099B","EPOCH":"2026-04-27T02:28:02.720064","MEAN_MOTION":15.14066275,"ECCENTRICITY":0.00104582,"INCLINATION":97.4301,"RA_OF_ASC_NODE":167.3807,"ARG_OF_PERICENTER":114.0468,"MEAN_ANOMALY":246.1859,"EPHEMERIS_TYPE":0,"CLASSIFICATION_TYPE":"U","NORAD_CAT_ID":43759,"ELEMENT_SET_NO":999,"REV_AT_EPOCH":40489,"BSTAR":0.00030729483,"MEAN_MOTION_DOT":5.532e-5,"MEAN_MOTION_DDOT":0},{"OBJECT_NAME":"CORVUS BC4","OBJECT_ID":"2018-099K","EPOCH":"2026-04-27T02:34:10.828128","MEAN_MOTION":15.12070454,"ECCENTRICITY":0.00087946,"INCLINATION":97.412,"RA_OF_ASC_NODE":161.5863,"ARG_OF_PERICENTER":166.2171,"MEAN_ANOMALY":193.9301,"EPHEMERIS_TYPE":0,"CLASSIFICATION_TYPE":"U","NORAD_CAT_ID":43767,"ELEMENT_SET_NO":999,"REV_AT_EPOCH":40468,"BSTAR":0.00025701236,"MEAN_MOTION_DOT":4.362e-5,"MEAN_MOTION_DDOT":0},{"OBJECT_NAME":"M2 PATHFINDER","OBJECT_ID":"2020-037E","EPOCH":"2026-04-27T02:28:24.083328","MEAN_MOTION":15.04446015,"ECCENTRICITY":0.00106996,"INCLINATION":97.8165,"RA_OF_ASC_NODE":307.7644,"ARG_OF_PERICENTER":333.3097,"MEAN_ANOMALY":26.7577,"EPHEMERIS_TYPE":0,"CLASSIFICATION_TYPE":"U","NORAD_CAT_ID":45727,"ELEMENT_SET_NO":999,"REV_AT_EPOCH":31781,"BSTAR":0.00013191233,"MEAN_MOTION_DOT":1.782e-5,"MEAN_MOTION_DDOT":0},{"OBJECT_NAME":"NETSAT-4","OBJECT_ID":"2020-068U","EPOCH":"2026-04-27T06:45:25.219296","MEAN_MOTION":15.42156504,"ECCENTRICITY":0.00072969,"INCLINATION":97.8626,"RA_OF_ASC_NODE":121.5005,"ARG_OF_PERICENTER":130.5076,"MEAN_ANOMALY":229.6806,"EPHEMERIS_TYPE":0,"CLASSIFICATION_TYPE":"U","NORAD_CAT_ID":46504,"ELEMENT_SET_NO":999,"REV_AT_EPOCH":30792,"BSTAR":0.00051327811,"MEAN_MOTION_DOT":0.00021953,"MEAN_MOTION_DDOT":0}]
